2026-027E               
1 67750U 26027E   26046.74418880  .00009535  00000+0  47600-3 0  9991
2 67750  97.4887 176.0033 0008749 289.6028  70.4261 15.17675099   531
2026-027F               
1 67751U 26027F   26046.81002086  .00017117  00000+0  84919-3 0  9996
2 67751  97.4889 176.0688 0009827 287.5449  72.4711 15.17739933   543
2026-027G               
1 67752U 26027G   26046.80993022  .00010627  00000+0  52872-3 0  9997
2 67752  97.4883 176.0683 0009075 290.9753  69.0509 15.17760913   543
2026-027H               
1 67753U 26027H   26046.84981715  .00404553  22866-5  78849-3 0  9995
2 67753  97.5141 176.3588 0274028 326.4262  31.9882 15.58045048   565
2026-027J               
1 67754U 26027J   26046.84652891  .00832877  23221-5  15692-2 0  9992
2 67754  97.5125 176.3645 0262290 326.1442  32.3303 15.60979612   500
CREW DRAGON 12          
1 67796U 26031A   26046.56961129  .00012237  00000+0  23255-3 0  9998
2 67796  51.6318 181.6982 0010992 101.7612 258.4610 15.48625638   324
