CCSDS_OMM_VERS = 2.0
CREATION_DATE  = 
ORIGINATOR     = 

OBJECT_NAME    = 2026-027E
OBJECT_ID      = 2026-027E
CENTER_NAME    = EARTH
REF_FRAME      = TEME
TIME_SYSTEM    = UTC
MEAN_ELEMENT_THEORY = SGP/SGP4

EPOCH          = 2026-02-15T17:51:37.912320
MEAN_MOTION    = 15.17675099
ECCENTRICITY   = .0008749
INCLINATION    = 97.4887
RA_OF_ASC_NODE = 176.0033
ARG_OF_PERICENTER = 289.6028
MEAN_ANOMALY   = 70.4261

EPHEMERIS_TYPE = 0
CLASSIFICATION_TYPE = U
NORAD_CAT_ID   = 67750
ELEMENT_SET_NO = 999
REV_AT_EPOCH   = 53
BSTAR          = .476E-3
MEAN_MOTION_DOT = .9535E-4
MEAN_MOTION_DDOT = 0

CCSDS_OMM_VERS = 2.0
CREATION_DATE  = 
ORIGINATOR     = 

OBJECT_NAME    = 2026-027F
OBJECT_ID      = 2026-027F
CENTER_NAME    = EARTH
REF_FRAME      = TEME
TIME_SYSTEM    = UTC
MEAN_ELEMENT_THEORY = SGP/SGP4

EPOCH          = 2026-02-15T19:26:25.802304
MEAN_MOTION    = 15.17739933
ECCENTRICITY   = .0009827
INCLINATION    = 97.4889
RA_OF_ASC_NODE = 176.0688
ARG_OF_PERICENTER = 287.5449
MEAN_ANOMALY   = 72.4711

EPHEMERIS_TYPE = 0
CLASSIFICATION_TYPE = U
NORAD_CAT_ID   = 67751
ELEMENT_SET_NO = 999
REV_AT_EPOCH   = 54
BSTAR          = .84919E-3
MEAN_MOTION_DOT = .17117E-3
MEAN_MOTION_DDOT = 0

CCSDS_OMM_VERS = 2.0
CREATION_DATE  = 
ORIGINATOR     = 

OBJECT_NAME    = 2026-027G
OBJECT_ID      = 2026-027G
CENTER_NAME    = EARTH
REF_FRAME      = TEME
TIME_SYSTEM    = UTC
MEAN_ELEMENT_THEORY = SGP/SGP4

EPOCH          = 2026-02-15T19:26:17.971008
MEAN_MOTION    = 15.17760913
ECCENTRICITY   = .0009075
INCLINATION    = 97.4883
RA_OF_ASC_NODE = 176.0683
ARG_OF_PERICENTER = 290.9753
MEAN_ANOMALY   = 69.0509

EPHEMERIS_TYPE = 0
CLASSIFICATION_TYPE = U
NORAD_CAT_ID   = 67752
ELEMENT_SET_NO = 999
REV_AT_EPOCH   = 54
BSTAR          = .52872E-3
MEAN_MOTION_DOT = .10627E-3
MEAN_MOTION_DDOT = 0

CCSDS_OMM_VERS = 2.0
CREATION_DATE  = 
ORIGINATOR     = 

OBJECT_NAME    = 2026-027H
OBJECT_ID      = 2026-027H
CENTER_NAME    = EARTH
REF_FRAME      = TEME
TIME_SYSTEM    = UTC
MEAN_ELEMENT_THEORY = SGP/SGP4

EPOCH          = 2026-02-15T20:23:44.201760
MEAN_MOTION    = 15.58045048
ECCENTRICITY   = .0274028
INCLINATION    = 97.5141
RA_OF_ASC_NODE = 176.3588
ARG_OF_PERICENTER = 326.4262
MEAN_ANOMALY   = 31.9882

EPHEMERIS_TYPE = 0
CLASSIFICATION_TYPE = U
NORAD_CAT_ID   = 67753
ELEMENT_SET_NO = 999
REV_AT_EPOCH   = 56
BSTAR          = .78849E-3
MEAN_MOTION_DOT = .404553E-2
MEAN_MOTION_DDOT = .22866E-5

CCSDS_OMM_VERS = 2.0
CREATION_DATE  = 
ORIGINATOR     = 

OBJECT_NAME    = 2026-027J
OBJECT_ID      = 2026-027J
CENTER_NAME    = EARTH
REF_FRAME      = TEME
TIME_SYSTEM    = UTC
MEAN_ELEMENT_THEORY = SGP/SGP4

EPOCH          = 2026-02-15T20:19:00.097824
MEAN_MOTION    = 15.60979612
ECCENTRICITY   = .026229
INCLINATION    = 97.5125
RA_OF_ASC_NODE = 176.3645
ARG_OF_PERICENTER = 326.1442
MEAN_ANOMALY   = 32.3303

EPHEMERIS_TYPE = 0
CLASSIFICATION_TYPE = U
NORAD_CAT_ID   = 67754
ELEMENT_SET_NO = 999
REV_AT_EPOCH   = 50
BSTAR          = .15692E-2
MEAN_MOTION_DOT = .832877E-2
MEAN_MOTION_DDOT = .23221E-5

CCSDS_OMM_VERS = 2.0
CREATION_DATE  = 
ORIGINATOR     = 

OBJECT_NAME    = CREW DRAGON 12
OBJECT_ID      = 2026-031A
CENTER_NAME    = EARTH
REF_FRAME      = TEME
TIME_SYSTEM    = UTC
MEAN_ELEMENT_THEORY = SGP/SGP4

EPOCH          = 2026-02-15T13:40:14.415456
MEAN_MOTION    = 15.48625638
ECCENTRICITY   = .00109928
INCLINATION    = 51.6318
RA_OF_ASC_NODE = 181.6982
ARG_OF_PERICENTER = 101.7612
MEAN_ANOMALY   = 258.4610

EPHEMERIS_TYPE = 0
CLASSIFICATION_TYPE = U
NORAD_CAT_ID   = 67796
ELEMENT_SET_NO = 999
REV_AT_EPOCH   = 32
BSTAR          = .2325502E-3
MEAN_MOTION_DOT = .12237E-3
MEAN_MOTION_DDOT = 0

